SL-14 R/B               
1 21423U 91042B   25346.98459648  .00000705  00000+0  86343-4 0  9990
2 21423  82.4926 301.4932 0017474 161.0006 199.1864 14.81739172840232
ERS-1                   
1 21574U 91050A   25347.01497903  .00000531  00000+0  18463-3 0  9991
2 21574  98.7906 358.0767 0033012  99.2713 261.2210 14.39364954803267
ARIANE 40 R/B           
1 21610U 91050F   25346.99453564  .00000552  00000+0  17800-3 0  9990
2 21610  98.2164  37.4157 0002765   0.2287 359.8904 14.42813716806490
INTERCOSMOS 25          
1 21819U 91086A   25346.96562286  .00002301  00000+0  45762-3 0  9991
2 21819  82.6074   2.4398 1486608 303.9092  42.9140 12.11727564486188
SL-8 R/B                
1 21876U 92008B   25346.96976527  .00000173  00000+0  16163-3 0  9994
2 21876  82.9265 332.2752 0035174  19.1740  39.7628 13.75958906697497
SL-8 R/B                
1 21938U 92020B   25346.90353404  .00000133  00000+0  12204-3 0  9992
2 21938  82.9306 218.1960 0028901 177.6794 192.9848 13.75527227689208
USA 81                  
1 21949U 92023A   25346.96417338  .00000285  00000+0  98126-4 0  9996
2 21949  85.0081 181.4469 0001403  65.4515 294.6824 14.32327016 82370
COSMOS 2219             
1 22219U 92076A   25347.00757810 -.00000002  00000+0  23483-4 0  9995
2 22219  71.0579 199.2731 0019084 326.5145  33.4769 14.14062569706123
SL-16 R/B               
1 22220U 92076B   25346.80968097 -.00000053  00000+0 -22802-5 0  9997
2 22220  71.0005  11.3849 0014777 234.0472 298.7438 14.16840891709523
COSMOS 2221             
1 22236U 92080A   25347.01854817  .00002780  00000+0  24656-3 0  9991
2 22236  82.5047   2.0587 0016038 120.7471 239.5333 14.95762383767832
SL-16 R/B               
1 22285U 92093B   25346.95610854  .00000370  00000+0  21391-3 0  9998
2 22285  71.0201 186.3417 0002174  70.9697 289.1662 14.15429641700888
COSMOS 2228             
1 22286U 92094A   25347.02457798  .00003658  00000+0  31711-3 0  9994
2 22286  82.5179 320.2620 0016573 230.3123 129.6638 14.96732760763090
