CCSDS_OMM_VERS = 2.0
CREATION_DATE  = 
ORIGINATOR     = 

OBJECT_NAME    = SL-14 R/B
OBJECT_ID      = 1991-042B
CENTER_NAME    = EARTH
REF_FRAME      = TEME
TIME_SYSTEM    = UTC
MEAN_ELEMENT_THEORY = SGP/SGP4

EPOCH          = 2025-12-12T23:37:49.135872
MEAN_MOTION    = 14.81739172
ECCENTRICITY   = .00174745
INCLINATION    = 82.4926
RA_OF_ASC_NODE = 301.4932
ARG_OF_PERICENTER = 161.0006
MEAN_ANOMALY   = 199.1864

EPHEMERIS_TYPE = 0
CLASSIFICATION_TYPE = U
NORAD_CAT_ID   = 21423
ELEMENT_SET_NO = 999
REV_AT_EPOCH   = 84023
BSTAR          = .86342675E-4
MEAN_MOTION_DOT = .705E-5
MEAN_MOTION_DDOT = 0

CCSDS_OMM_VERS = 2.0
CREATION_DATE  = 
ORIGINATOR     = 

OBJECT_NAME    = ERS-1
OBJECT_ID      = 1991-050A
CENTER_NAME    = EARTH
REF_FRAME      = TEME
TIME_SYSTEM    = UTC
MEAN_ELEMENT_THEORY = SGP/SGP4

EPOCH          = 2025-12-13T00:21:34.188192
MEAN_MOTION    = 14.39364954
ECCENTRICITY   = .00330127
INCLINATION    = 98.7906
RA_OF_ASC_NODE = 358.0767
ARG_OF_PERICENTER = 99.2713
MEAN_ANOMALY   = 261.2210

EPHEMERIS_TYPE = 0
CLASSIFICATION_TYPE = U
NORAD_CAT_ID   = 21574
ELEMENT_SET_NO = 999
REV_AT_EPOCH   = 80326
BSTAR          = .18462965E-3
MEAN_MOTION_DOT = .531E-5
MEAN_MOTION_DDOT = 0

CCSDS_OMM_VERS = 2.0
CREATION_DATE  = 
ORIGINATOR     = 

OBJECT_NAME    = ARIANE 40 R/B
OBJECT_ID      = 1991-050F
CENTER_NAME    = EARTH
REF_FRAME      = TEME
TIME_SYSTEM    = UTC
MEAN_ELEMENT_THEORY = SGP/SGP4

EPOCH          = 2025-12-12T23:52:07.879296
MEAN_MOTION    = 14.42813716
ECCENTRICITY   = .0002765
INCLINATION    = 98.2164
RA_OF_ASC_NODE = 37.4157
ARG_OF_PERICENTER = 0.2287
MEAN_ANOMALY   = 359.8904

EPHEMERIS_TYPE = 0
CLASSIFICATION_TYPE = U
NORAD_CAT_ID   = 21610
ELEMENT_SET_NO = 999
REV_AT_EPOCH   = 80649
BSTAR          = .17800058E-3
MEAN_MOTION_DOT = .552E-5
MEAN_MOTION_DDOT = 0

CCSDS_OMM_VERS = 2.0
CREATION_DATE  = 
ORIGINATOR     = 

OBJECT_NAME    = INTERCOSMOS 25
OBJECT_ID      = 1991-086A
CENTER_NAME    = EARTH
REF_FRAME      = TEME
TIME_SYSTEM    = UTC
MEAN_ELEMENT_THEORY = SGP/SGP4

EPOCH          = 2025-12-12T23:10:29.815104
MEAN_MOTION    = 12.11727564
ECCENTRICITY   = .14866086
INCLINATION    = 82.6074
RA_OF_ASC_NODE = 2.4398
ARG_OF_PERICENTER = 303.9092
MEAN_ANOMALY   = 42.9140

EPHEMERIS_TYPE = 0
CLASSIFICATION_TYPE = U
NORAD_CAT_ID   = 21819
ELEMENT_SET_NO = 999
REV_AT_EPOCH   = 48618
BSTAR          = .45761922E-3
MEAN_MOTION_DOT = .2301E-4
MEAN_MOTION_DDOT = 0

CCSDS_OMM_VERS = 2.0
CREATION_DATE  = 
ORIGINATOR     = 

OBJECT_NAME    = SL-8 R/B
OBJECT_ID      = 1992-008B
CENTER_NAME    = EARTH
REF_FRAME      = TEME
TIME_SYSTEM    = UTC
MEAN_ELEMENT_THEORY = SGP/SGP4

EPOCH          = 2025-12-12T23:16:27.719328
MEAN_MOTION    = 13.75958906
ECCENTRICITY   = .00351744
INCLINATION    = 82.9265
RA_OF_ASC_NODE = 332.2752
ARG_OF_PERICENTER = 19.1740
MEAN_ANOMALY   = 39.7628

EPHEMERIS_TYPE = 0
CLASSIFICATION_TYPE = U
NORAD_CAT_ID   = 21876
ELEMENT_SET_NO = 999
REV_AT_EPOCH   = 69749
BSTAR          = .16162525E-3
MEAN_MOTION_DOT = .173E-5
MEAN_MOTION_DDOT = 0

CCSDS_OMM_VERS = 2.0
CREATION_DATE  = 
ORIGINATOR     = 

OBJECT_NAME    = SL-8 R/B
OBJECT_ID      = 1992-020B
CENTER_NAME    = EARTH
REF_FRAME      = TEME
TIME_SYSTEM    = UTC
MEAN_ELEMENT_THEORY = SGP/SGP4

EPOCH          = 2025-12-12T21:41:05.341056
MEAN_MOTION    = 13.75527227
ECCENTRICITY   = .00289014
INCLINATION    = 82.9306
RA_OF_ASC_NODE = 218.1960
ARG_OF_PERICENTER = 177.6794
MEAN_ANOMALY   = 192.9848

EPHEMERIS_TYPE = 0
CLASSIFICATION_TYPE = U
NORAD_CAT_ID   = 21938
ELEMENT_SET_NO = 999
REV_AT_EPOCH   = 68920
BSTAR          = .12203796E-3
MEAN_MOTION_DOT = .133E-5
MEAN_MOTION_DDOT = 0

CCSDS_OMM_VERS = 2.0
CREATION_DATE  = 
ORIGINATOR     = 

OBJECT_NAME    = USA 81
OBJECT_ID      = 1992-023A
CENTER_NAME    = EARTH
REF_FRAME      = TEME
TIME_SYSTEM    = UTC
MEAN_ELEMENT_THEORY = SGP/SGP4

EPOCH          = 2025-12-12T23:08:24.580032
MEAN_MOTION    = 14.32327016
ECCENTRICITY   = .0001403
INCLINATION    = 85.0081
RA_OF_ASC_NODE = 181.4469
ARG_OF_PERICENTER = 65.4515
MEAN_ANOMALY   = 294.6824

EPHEMERIS_TYPE = 0
CLASSIFICATION_TYPE = U
NORAD_CAT_ID   = 21949
ELEMENT_SET_NO = 999
REV_AT_EPOCH   = 8237
BSTAR          = .98126276E-4
MEAN_MOTION_DOT = .285E-5
MEAN_MOTION_DDOT = 0

CCSDS_OMM_VERS = 2.0
CREATION_DATE  = 
ORIGINATOR     = 

OBJECT_NAME    = COSMOS 2219
OBJECT_ID      = 1992-076A
CENTER_NAME    = EARTH
REF_FRAME      = TEME
TIME_SYSTEM    = UTC
MEAN_ELEMENT_THEORY = SGP/SGP4

EPOCH          = 2025-12-13T00:10:54.747840
MEAN_MOTION    = 14.14062569
ECCENTRICITY   = .00190848
INCLINATION    = 71.0579
RA_OF_ASC_NODE = 199.2731
ARG_OF_PERICENTER = 326.5145
MEAN_ANOMALY   = 33.4769

EPHEMERIS_TYPE = 0
CLASSIFICATION_TYPE = U
NORAD_CAT_ID   = 22219
ELEMENT_SET_NO = 999
REV_AT_EPOCH   = 70612
BSTAR          = .23483235E-4
MEAN_MOTION_DOT = -.2E-7
MEAN_MOTION_DDOT = 0

CCSDS_OMM_VERS = 2.0
CREATION_DATE  = 
ORIGINATOR     = 

OBJECT_NAME    = SL-16 R/B
OBJECT_ID      = 1992-076B
CENTER_NAME    = EARTH
REF_FRAME      = TEME
TIME_SYSTEM    = UTC
MEAN_ELEMENT_THEORY = SGP/SGP4

EPOCH          = 2025-12-12T19:25:56.435808
MEAN_MOTION    = 14.16840891
ECCENTRICITY   = .00147779
INCLINATION    = 71.0005
RA_OF_ASC_NODE = 11.3849
ARG_OF_PERICENTER = 234.0472
MEAN_ANOMALY   = 298.7438

EPHEMERIS_TYPE = 0
CLASSIFICATION_TYPE = U
NORAD_CAT_ID   = 22220
ELEMENT_SET_NO = 999
REV_AT_EPOCH   = 70952
BSTAR          = -.2280168E-5
MEAN_MOTION_DOT = -.53E-6
MEAN_MOTION_DDOT = 0

CCSDS_OMM_VERS = 2.0
CREATION_DATE  = 
ORIGINATOR     = 

OBJECT_NAME    = COSMOS 2221
OBJECT_ID      = 1992-080A
CENTER_NAME    = EARTH
REF_FRAME      = TEME
TIME_SYSTEM    = UTC
MEAN_ELEMENT_THEORY = SGP/SGP4

EPOCH          = 2025-12-13T00:26:42.561888
MEAN_MOTION    = 14.95762383
ECCENTRICITY   = .00160385
INCLINATION    = 82.5047
RA_OF_ASC_NODE = 2.0587
ARG_OF_PERICENTER = 120.7471
MEAN_ANOMALY   = 239.5333

EPHEMERIS_TYPE = 0
CLASSIFICATION_TYPE = U
NORAD_CAT_ID   = 22236
ELEMENT_SET_NO = 999
REV_AT_EPOCH   = 76783
BSTAR          = .24655535E-3
MEAN_MOTION_DOT = .278E-4
MEAN_MOTION_DDOT = 0

CCSDS_OMM_VERS = 2.0
CREATION_DATE  = 
ORIGINATOR     = 

OBJECT_NAME    = SL-16 R/B
OBJECT_ID      = 1992-093B
CENTER_NAME    = EARTH
REF_FRAME      = TEME
TIME_SYSTEM    = UTC
MEAN_ELEMENT_THEORY = SGP/SGP4

EPOCH          = 2025-12-12T22:56:47.777856
MEAN_MOTION    = 14.15429641
ECCENTRICITY   = .00021742
INCLINATION    = 71.0201
RA_OF_ASC_NODE = 186.3417
ARG_OF_PERICENTER = 70.9697
MEAN_ANOMALY   = 289.1662

EPHEMERIS_TYPE = 0
CLASSIFICATION_TYPE = U
NORAD_CAT_ID   = 22285
ELEMENT_SET_NO = 999
REV_AT_EPOCH   = 70088
BSTAR          = .21391394E-3
MEAN_MOTION_DOT = .37E-5
MEAN_MOTION_DDOT = 0

CCSDS_OMM_VERS = 2.0
CREATION_DATE  = 
ORIGINATOR     = 

OBJECT_NAME    = COSMOS 2228
OBJECT_ID      = 1992-094A
CENTER_NAME    = EARTH
REF_FRAME      = TEME
TIME_SYSTEM    = UTC
MEAN_ELEMENT_THEORY = SGP/SGP4

EPOCH          = 2025-12-13T00:35:23.537472
MEAN_MOTION    = 14.96732760
ECCENTRICITY   = .00165735
INCLINATION    = 82.5179
RA_OF_ASC_NODE = 320.2620
ARG_OF_PERICENTER = 230.3123
MEAN_ANOMALY   = 129.6638

EPHEMERIS_TYPE = 0
CLASSIFICATION_TYPE = U
NORAD_CAT_ID   = 22286
ELEMENT_SET_NO = 999
REV_AT_EPOCH   = 76309
BSTAR          = .31710989E-3
MEAN_MOTION_DOT = .3658E-4
MEAN_MOTION_DDOT = 0

